[{"total_price": {"currency": "USD", "amount": "372.20"}, "contacts": [{"type": "PHONE", "detail": "86/21/24202999"}, {"type": "FAX", "detail": "86/21/52260306"}, {"type": "EMAIL", "detail": "daisy.dai@mercure-shanghai-hongqiaors.com"}, {"type": "URL", "detail": "www.accorhotels.com/B1Y2"}], "min_daily_rate": {"currency": "USD", "amount": "13.45"}, "_links": {"more_rooms_at_this_hotel": {"href": "https://api.sandbox.amadeus.com/v1.2/hotels/RTSHASTA?apikey=goTs2OMgouGoi5nBhsBcpK11RWe7dDdE&check_in=2018-06-12&check_out=2018-06-19&referrer=more_rooms_at_this_hotel"}}, "images": [], "amenities": [{"amenity": "ELEVATORS", "description": "Elevators", "ota_code": 33}, {"amenity": "AC_220V", "description": "220 AC", "ota_code": 115}, {"amenity": "INTERNET_SERVICES", "description": "Internet services", "ota_code": 223}, {"amenity": "PARKING", "description": "Parking", "ota_code": 68}, {"amenity": "", "description": "120 AC", "ota_code": 113}, {"amenity": "ACCESSIBLE_FACILITIES", "description": "Accessible facilities", "ota_code": 47}, {"amenity": "CONCIERGE_DESK", "description": "Concierge desk", "ota_code": 22}, {"amenity": "", "description": "Wireless internet connection in public areas", "ota_code": 179}, {"amenity": "CURRENCY_EXCHANGE", "description": "Currency exchange", "ota_code": 26}, {"amenity": "LOUNGE_BARS", "description": "Lounges/bars", "ota_code": 165}, {"amenity": "EXPRESS_CHECK_OUT", "description": "Express check-out", "ota_code": 37}, {"amenity": "BUS_PARKING", "description": "Bus parking", "ota_code": 192}, {"amenity": "FRONT_DESK_24_HOURS", "description": "24-hour front desk", "ota_code": 1}, {"amenity": "", "description": "Bell staff/porter", "ota_code": 106}, {"amenity": "", "description": "Indoor parking", "ota_code": 53}, {"amenity": "RESTAURANT", "description": "Restaurant", "ota_code": 76}], "location": {"latitude": 31.20151, "longitude": 121.31526}, "address": {"city": "Shanghai", "postal_code": "201106", "line1": "No 5 Lane 683 Shenhong Road", "country": "CN"}, "property_code": "RTSHASTA", "awards": [{"rating": "4", "provider": "Local Star Rating"}], "property_name": "Mercure Sh Hq Railway Station", "rooms": [{"total_amount": {"currency": "USD", "amount": "372.20"}, "rate_plan_code": "SEN", "room_type_info": {"bed_type": "Single", "room_type": "Room with bath - Moderate", "number_of_beds": "1"}, "room_type_code": "B1S", "rates": [{"price": 53.82, "start_date": "2018-06-12", "end_date": "2018-06-16", "currency_code": "USD"}, {"price": 51.56, "start_date": "2018-06-16", "end_date": "2018-06-18", "currency_code": "USD"}, {"price": 53.82, "start_date": "2018-06-18", "end_date": "2018-06-19", "currency_code": "USD"}], "descriptions": ["Senior Rate - Age 60 and over", "Standard Room with 1 Single Bed"], "rate_type_code": "SEN", "booking_code": "B1SSEN"}]}, {"total_price": {"currency": "USD", "amount": "514.83"}, "contacts": [{"type": "PHONE", "detail": "86/21/51533300"}, {"type": "FAX", "detail": "86/21/51533555"}, {"type": "EMAIL", "detail": "reservation@grandmercure-hongqiao-shanghai.com"}, {"type": "URL", "detail": "www.accorhotels.com"}], "min_daily_rate": {"currency": "USD", "amount": "14.24"}, "_links": {"more_rooms_at_this_hotel": {"href": "https://api.sandbox.amadeus.com/v1.2/hotels/RTSHAMER?apikey=goTs2OMgouGoi5nBhsBcpK11RWe7dDdE&check_in=2018-06-12&check_out=2018-06-19&referrer=more_rooms_at_this_hotel"}}, "images": [], "amenities": [{"amenity": "ELEVATORS", "description": "Elevators", "ota_code": 33}, {"amenity": "ROOM_SERVICE", "description": "Room service", "ota_code": 77}, {"amenity": "", "description": "120 AC", "ota_code": 113}, {"amenity": "", "description": "Wireless internet connection in public areas", "ota_code": 179}, {"amenity": "EXPRESS_CHECK_IN", "description": "Express check-in", "ota_code": 36}, {"amenity": "CHILDREN_WELCOME", "description": "Children welcome", "ota_code": 218}, {"amenity": "BALLROOM", "description": "Ballroom", "ota_code": 191}, {"amenity": "EXPRESS_CHECK_OUT", "description": "Express check-out", "ota_code": 37}, {"amenity": "BUS_PARKING", "description": "Bus parking", "ota_code": 192}, {"amenity": "", "description": "Bell staff/porter", "ota_code": 106}, {"amenity": "MULTILINGUAL_STAFF", "description": "Multilingual staff", "ota_code": 103}, {"amenity": "MASSAGE_SERVICES", "description": "Massage services", "ota_code": 61}, {"amenity": "INTERNET_SERVICES", "description": "Internet services", "ota_code": 223}, {"amenity": "PARKING", "description": "Parking", "ota_code": 68}, {"amenity": "", "description": "Translation services", "ota_code": 92}, {"amenity": "", "description": "Tour/sightseeing desk", "ota_code": 91}, {"amenity": "CONCIERGE_DESK", "description": "Concierge desk", "ota_code": 22}, {"amenity": "CURRENCY_EXCHANGE", "description": "Currency exchange", "ota_code": 26}, {"amenity": "LOUNGE_BARS", "description": "Lounges/bars", "ota_code": 165}, {"amenity": "FRONT_DESK_24_HOURS", "description": "24-hour front desk", "ota_code": 1}, {"amenity": "", "description": "Indoor parking", "ota_code": 53}, {"amenity": "BABY_SITTING", "description": "Baby sitting", "ota_code": 8}, {"amenity": "RESTAURANT", "description": "Restaurant", "ota_code": 76}], "location": {"latitude": 31.20787, "longitude": 121.39204}, "address": {"city": "Shanghai", "postal_code": "200336", "line1": "369 Xian Xia Road", "country": "CN"}, "property_code": "RTSHAMER", "awards": [{"rating": "Deluxe", "provider": "OHG"}], "property_name": "Grand Mercure Hongqiao", "rooms": [{"total_amount": {"currency": "USD", "amount": "514.83"}, "rate_plan_code": "R5D", "room_type_info": {"bed_type": "Single", "room_type": "Room with bath - Moderate", "number_of_beds": "2"}, "room_type_code": "B2S", "rates": [{"price": 56.98, "start_date": "2018-06-15", "end_date": "2018-06-19", "currency_code": "USD"}, {"price": 95.64, "start_date": "2018-06-12", "end_date": "2018-06-15", "currency_code": "USD"}], "descriptions": ["STAY LONGER AND SAVE MORE", "Quarto Superior, 2 camas de solteiro e vista pa", "ra a cidade"], "rate_type_code": "R5D", "booking_code": "B2SR5D"}]}, {"total_price": {"currency": "USD", "amount": "537.43"}, "contacts": [{"type": "PHONE", "detail": "86-21-60561899"}, {"type": "FAX", "detail": "86-21-60561898"}, {"type": "URL", "detail": "www.hiexpress.com/shanghaijinsha"}], "min_daily_rate": {"currency": "USD", "amount": "29.27"}, "_links": {"more_rooms_at_this_hotel": {"href": "https://api.sandbox.amadeus.com/v1.2/hotels/HISHABAB?apikey=goTs2OMgouGoi5nBhsBcpK11RWe7dDdE&check_in=2018-06-12&check_out=2018-06-19&referrer=more_rooms_at_this_hotel"}}, "images": [], "amenities": [{"amenity": "COFFEE_SHOP", "description": "Coffee shop", "ota_code": 20}, {"amenity": "RESTAURANT", "description": "Restaurant", "ota_code": 76}, {"amenity": "ACCESSIBLE_FACILITIES", "description": "Accessible facilities", "ota_code": 47}, {"amenity": "BABY_SITTING", "description": "Baby sitting", "ota_code": 8}, {"amenity": "CAR_RENTAL", "description": "Car rental desk", "ota_code": 15}, {"amenity": "CURRENCY_EXCHANGE", "description": "Currency exchange", "ota_code": 26}, {"amenity": "GIFT_SHOP", "description": "Gift/News stand", "ota_code": 45}, {"amenity": "HOTSPOTS", "description": "Hotspots", "ota_code": 221}, {"amenity": "FREE_HIGH_SPEED_INTERNET", "description": "Free high speed internet connection", "ota_code": 222}, {"amenity": "INTERNET_PUBLIC_AREAS", "description": "Internet access in public areas", "ota_code": 178}, {"amenity": "LAUNDRY_SERVICE", "description": "Laundry/Valet service", "ota_code": 58}, {"amenity": "PARKING", "description": "Parking", "ota_code": 68}, {"amenity": "SAFE_DEPOSIT_BOX", "description": "Safe deposit box", "ota_code": 78}], "location": {"latitude": 31.23698, "longitude": 121.36628}, "address": {"city": "Shanghai", "postal_code": "200333", "line1": "2281 Jinshajiang Road", "country": "CN"}, "property_code": "HISHABAB", "awards": [], "marketing_text": "Metro Line 13 is able to reach Global Harbor Shopping Mall, Natural History Museum, Nanjing ((W) Road, Middle Huaihai Road, Xintiandi, Expo Ave etc...", "property_name": "Holiday Inn Exp Jinsha", "rooms": [{"total_amount": {"currency": "USD", "amount": "537.43"}, "rate_plan_code": "R0L", "room_type_info": {"room_type": "Unspecified"}, "room_type_code": "*RH", "rates": [{"price": 58.54, "start_date": "2018-06-15", "end_date": "2018-06-17", "currency_code": "USD"}, {"price": 89.15, "start_date": "2018-06-12", "end_date": "2018-06-14", "currency_code": "USD"}, {"price": 89.15, "start_date": "2018-06-17", "end_date": "2018-06-19", "currency_code": "USD"}, {"price": 63.77, "start_date": "2018-06-14", "end_date": "2018-06-15", "currency_code": "USD"}], "descriptions": ["ADVANCE PURCHASE NO REFUNDS", "STANDARD ROOM WHEN YOU ARRIVE WE WILL DO OUR", "BEST TO MEET YOUR ROOM BED TYPE . ROOMS SUBJ TO"], "rate_type_code": "R0L", "booking_code": "STNR0LN"}]}, {"total_price": {"currency": "USD", "amount": "566.01"}, "contacts": [{"type": "PHONE", "detail": "86-21-8028 9888"}, {"type": "FAX", "detail": "86-21-8028 9889"}], "min_daily_rate": {"currency": "USD", "amount": "39.21"}, "_links": {"more_rooms_at_this_hotel": {"href": "https://api.sandbox.amadeus.com/v1.2/hotels/SMSHAHON?apikey=goTs2OMgouGoi5nBhsBcpK11RWe7dDdE&check_in=2018-06-12&check_out=2018-06-19&referrer=more_rooms_at_this_hotel"}}, "images": [], "amenities": [{"amenity": "COFFEE_SHOP", "description": "Coffee shop", "ota_code": 20}, {"amenity": "RESTAURANT", "description": "Restaurant", "ota_code": 76}, {"amenity": "ACCESSIBLE_FACILITIES", "description": "Accessible facilities", "ota_code": 47}, {"amenity": "ELEVATORS", "description": "Elevators", "ota_code": 33}, {"amenity": "EXECUTIVE_FLOOR", "description": "Executive floor", "ota_code": 34}, {"amenity": "GIFT_SHOP", "description": "Gift/News stand", "ota_code": 45}, {"amenity": "LAUNDRY_SERVICE", "description": "Laundry/Valet service", "ota_code": 58}, {"amenity": "LOUNGE_BARS", "description": "Lounges/bars", "ota_code": 165}, {"amenity": "LOUNGE_BARS", "description": "Lounges/bars", "ota_code": 165}, {"amenity": "SAFE_DEPOSIT_BOX", "description": "Safe deposit box", "ota_code": 78}, {"amenity": "OUTDOOR_POOL", "description": "Outdoor pool", "ota_code": 66}, {"amenity": "BALLROOM", "description": "Ballroom", "ota_code": 191}, {"amenity": "SPA", "description": "Spa", "ota_code": 84}], "location": {"latitude": 31.17356, "longitude": 121.28662}, "address": {"city": "Shanghai", "postal_code": "201702", "line1": "No.1118 Gaojing Road", "country": "CN"}, "property_code": "SMSHAHON", "awards": [], "property_name": "Melia Shanghai Hongqiao", "rooms": [{"total_amount": {"currency": "USD", "amount": "566.01"}, "rate_plan_code": "BP1", "room_type_info": {"bed_type": "Twin", "room_type": "Room with bath - Moderate", "number_of_beds": "2"}, "room_type_code": "B2T", "rates": [{"price": 78.42, "start_date": "2018-06-17", "end_date": "2018-06-19", "currency_code": "USD"}, {"price": 82.49, "start_date": "2018-06-12", "end_date": "2018-06-14", "currency_code": "USD"}, {"price": 84.53, "start_date": "2018-06-14", "end_date": "2018-06-16", "currency_code": "USD"}, {"price": 75.13, "start_date": "2018-06-16", "end_date": "2018-06-17", "currency_code": "USD"}], "descriptions": ["BAR Non Refundable Short", "PREMIUM", "37m2,King/twin,WIFI,shower,writing desk"], "rate_type_code": "BP1", "booking_code": "B2TBP1"}]}, {"total_price": {"currency": "USD", "amount": "592.31"}, "contacts": [{"type": "PHONE", "detail": "86-21-32163333"}, {"type": "FAX", "detail": "86-21-32163555"}], "min_daily_rate": {"currency": "USD", "amount": "24.42"}, "_links": {"more_rooms_at_this_hotel": {"href": "https://api.sandbox.amadeus.com/v1.2/hotels/CYSHAFPC?apikey=goTs2OMgouGoi5nBhsBcpK11RWe7dDdE&check_in=2018-06-12&check_out=2018-06-19&referrer=more_rooms_at_this_hotel"}}, "images": [], "amenities": [{"amenity": "COFFEE_SHOP", "description": "Coffee shop", "ota_code": 20}, {"amenity": "ICE_MACHINE", "description": "Ice machine", "ota_code": 52}, {"amenity": "RESTAURANT", "description": "Restaurant", "ota_code": 76}, {"amenity": "ACCESSIBLE_FACILITIES", "description": "Accessible facilities", "ota_code": 47}, {"amenity": "ELEVATORS", "description": "Elevators", "ota_code": 33}, {"amenity": "EXECUTIVE_FLOOR", "description": "Executive floor", "ota_code": 34}, {"amenity": "INTERNET_PUBLIC_AREAS", "description": "Internet access in public areas", "ota_code": 178}, {"amenity": "LAUNDRY_SERVICE", "description": "Laundry/Valet service", "ota_code": 58}, {"amenity": "ROOM_SERVICE", "description": "Room service", "ota_code": 77}, {"amenity": "SAFE_DEPOSIT_BOX", "description": "Safe deposit box", "ota_code": 78}], "location": {"latitude": 31.22294, "longitude": 121.37953}, "address": {"city": "Shanghai", "postal_code": "200062", "line1": "No 99 Danba Road", "country": "CN"}, "property_code": "CYSHAFPC", "awards": [], "property_name": "Courtyard Changfeng Marriott", "rooms": [{"total_amount": {"currency": "USD", "amount": "592.31"}, "rate_plan_code": "RAC", "room_type_info": {"room_type": "Room with bath - Superior"}, "room_type_code": "APN", "rates": [{"price": 73.26, "start_date": "2018-06-15", "end_date": "2018-06-18", "currency_code": "USD"}, {"price": 93.14, "start_date": "2018-06-12", "end_date": "2018-06-15", "currency_code": "USD"}, {"price": 93.14, "start_date": "2018-06-18", "end_date": "2018-06-19", "currency_code": "USD"}], "descriptions": ["Advance Purchase rate, prepay in full, non-refu", "es", "Deluxe Room, Guest room, 2 Double, City view, 2"], "rate_type_code": "RAC", "booking_code": "APNL00"}]}, {"total_price": {"currency": "USD", "amount": "657.43"}, "contacts": [{"type": "PHONE", "detail": "86-21-39796888"}, {"type": "FAX", "detail": "86-21-39796999"}, {"type": "URL", "detail": "WWW.GIHG.COM"}], "min_daily_rate": {"currency": "USD", "amount": "11.51"}, "_links": {"more_rooms_at_this_hotel": {"href": "https://api.sandbox.amadeus.com/v1.2/hotels/YXSHAQHH?apikey=goTs2OMgouGoi5nBhsBcpK11RWe7dDdE&check_in=2018-06-12&check_out=2018-06-19&referrer=more_rooms_at_this_hotel"}}, "images": [], "amenities": [{"amenity": "COFFEE_SHOP", "description": "Coffee shop", "ota_code": 20}, {"amenity": "RESTAURANT", "description": "Restaurant", "ota_code": 76}, {"amenity": "ACCESSIBLE_FACILITIES", "description": "Accessible facilities", "ota_code": 47}, {"amenity": "CHILDREN_WELCOME", "description": "Children welcome", "ota_code": 218}, {"amenity": "CURRENCY_EXCHANGE", "description": "Currency exchange", "ota_code": 26}, {"amenity": "EXECUTIVE_FLOOR", "description": "Executive floor", "ota_code": 34}, {"amenity": "HOTSPOTS", "description": "Hotspots", "ota_code": 221}, {"amenity": "INTERNET_PUBLIC_AREAS", "description": "Internet access in public areas", "ota_code": 178}, {"amenity": "LAUNDRY_SERVICE", "description": "Laundry/Valet service", "ota_code": 58}, {"amenity": "LOUNGE_BARS", "description": "Lounges/bars", "ota_code": 165}, {"amenity": "LOUNGE_BARS", "description": "Lounges/bars", "ota_code": 165}, {"amenity": "ROOM_SERVICE", "description": "Room service", "ota_code": 77}, {"amenity": "SAFE_DEPOSIT_BOX", "description": "Safe deposit box", "ota_code": 78}], "location": {"latitude": 31.18725, "longitude": 121.29873}, "address": {"city": "Shanghai", "postal_code": "201702", "line1": "No 200 Lane 1588 Zhuguang Road", "country": "CN"}, "property_code": "YXSHAQHH", "awards": [{"rating": "4", "provider": "Local Star Rating"}], "property_name": "The Qube Hotel Hongqiao", "rooms": [{"total_amount": {"currency": "USD", "amount": "657.43"}, "rate_plan_code": "PR2", "room_type_info": {"bed_type": "King", "room_type": "Room with bath - Superior", "number_of_beds": "1"}, "room_type_code": "A1K", "rates": [{"price": 80.55, "start_date": "2018-06-12", "end_date": "2018-06-19", "currency_code": "USD"}], "descriptions": ["BAR ", "SUPERIOR KING ROOM-1 HOLLYWOOD KING BED-38SQM WORKING DESK-FREE ", "WIFI-IN ROOM SAFE HOLLYWOOD KING BED CABLE CHANNELS AND "], "rate_type_code": "PR2", "booking_code": "A1KPR2"}]}, {"total_price": {"currency": "USD", "amount": "658.74"}, "contacts": [{"type": "PHONE", "detail": "86-021-33295588"}, {"type": "FAX", "detail": "86-021-33295500"}], "min_daily_rate": {"currency": "USD", "amount": "13.44"}, "_links": {"more_rooms_at_this_hotel": {"href": "https://api.sandbox.amadeus.com/v1.2/hotels/HYSHAHPS?apikey=goTs2OMgouGoi5nBhsBcpK11RWe7dDdE&check_in=2018-06-12&check_out=2018-06-19&referrer=more_rooms_at_this_hotel"}}, "images": [], "amenities": [{"amenity": "RESTAURANT", "description": "Restaurant", "ota_code": 76}, {"amenity": "ACCESSIBLE_FACILITIES", "description": "Accessible facilities", "ota_code": 47}, {"amenity": "BEAUTY_SALON", "description": "Beauty shop/salon", "ota_code": 107}, {"amenity": "CAR_RENTAL", "description": "Car rental desk", "ota_code": 15}, {"amenity": "CHILDREN_WELCOME", "description": "Children welcome", "ota_code": 218}, {"amenity": "ELEVATORS", "description": "Elevators", "ota_code": 33}, {"amenity": "HOTSPOTS", "description": "Hotspots", "ota_code": 221}, {"amenity": "FREE_HIGH_SPEED_INTERNET", "description": "Free high speed internet connection", "ota_code": 222}, {"amenity": "INTERNET_PUBLIC_AREAS", "description": "Internet access in public areas", "ota_code": 178}, {"amenity": "NON_PORNOGRAPHIC_TV", "description": "Hotel does not provide pornographic films/TV", "ota_code": 220}, {"amenity": "PARKING", "description": "Parking", "ota_code": 68}, {"amenity": "LOUNGE_BARS", "description": "Lounges/bars", "ota_code": 165}, {"amenity": "", "description": "Hairdresser/barber", "ota_code": 46}, {"amenity": "POOL", "description": "Pool", "ota_code": 71}, {"amenity": "LOUNGE_BARS", "description": "Lounges/bars", "ota_code": 165}], "location": {"latitude": 31.19336, "longitude": 121.31237}, "address": {"city": "Shanghai", "postal_code": "201106", "line1": "9 Shenhong", "country": "CN"}, "property_code": "HYSHAHPS", "awards": [], "property_name": "Hyatt Place Shanghai Hongqiao Cbd", "rooms": [{"total_amount": {"currency": "USD", "amount": "658.74"}, "rate_plan_code": "***", "room_type_info": {"bed_type": "Twin", "room_type": "Room with bath - Superior", "number_of_beds": "2"}, "room_type_code": "A2T", "rates": [{"price": 94.11, "start_date": "2018-06-12", "end_date": "2018-06-19", "currency_code": "USD"}], "descriptions": ["LONG TERM STAY TWIN NO SFBD", "35SQM:TWIN:FREE WIFI:FREE BF:SOFA AREA"], "rate_type_code": "***", "booking_code": "TNXLONG"}]}, {"total_price": {"currency": "USD", "amount": "690.43"}, "contacts": [{"type": "PHONE", "detail": "86/21/36696666"}, {"type": "FAX", "detail": "86/21/36696693"}, {"type": "EMAIL", "detail": "H9933-RE@sofitel.com"}, {"type": "URL", "detail": "www.accorhotels.com"}], "min_daily_rate": {"currency": "USD", "amount": "21.93"}, "_links": {"more_rooms_at_this_hotel": {"href": "https://api.sandbox.amadeus.com/v1.2/hotels/SBSHASHO?apikey=goTs2OMgouGoi5nBhsBcpK11RWe7dDdE&check_in=2018-06-12&check_out=2018-06-19&referrer=more_rooms_at_this_hotel"}}, "images": [], "amenities": [{"amenity": "ELEVATORS", "description": "Elevators", "ota_code": 33}, {"amenity": "SAUNA", "description": "Sauna", "ota_code": 79}, {"amenity": "SAFE_DEPOSIT_BOX", "description": "Safe deposit box", "ota_code": 78}, {"amenity": "ROOM_SERVICE", "description": "Room service", "ota_code": 77}, {"amenity": "AC_220V", "description": "220 AC", "ota_code": 115}, {"amenity": "JACUZZI", "description": "Jacuzzi", "ota_code": 55}, {"amenity": "", "description": "Wireless internet connection in public areas", "ota_code": 179}, {"amenity": "CHILDREN_WELCOME", "description": "Children welcome", "ota_code": 218}, {"amenity": "EXPRESS_CHECK_OUT", "description": "Express check-out", "ota_code": 37}, {"amenity": "BUS_PARKING", "description": "Bus parking", "ota_code": 192}, {"amenity": "", "description": "Bell staff/porter", "ota_code": 106}, {"amenity": "ACCESSIBLE_FACILITIES", "description": "Accessible facilities", "ota_code": 47}, {"amenity": "MASSAGE_SERVICES", "description": "Massage services", "ota_code": 61}, {"amenity": "", "description": "Heated pool", "ota_code": 49}, {"amenity": "INTERNET_SERVICES", "description": "Internet services", "ota_code": 223}, {"amenity": "PARKING", "description": "Parking", "ota_code": 68}, {"amenity": "", "description": "Translation services", "ota_code": 92}, {"amenity": "CONCIERGE_DESK", "description": "Concierge desk", "ota_code": 22}, {"amenity": "CURRENCY_EXCHANGE", "description": "Currency exchange", "ota_code": 26}, {"amenity": "LOUNGE_BARS", "description": "Lounges/bars", "ota_code": 165}, {"amenity": "FRONT_DESK_24_HOURS", "description": "24-hour front desk", "ota_code": 1}, {"amenity": "ADJOINING_ROOMS", "description": "Adjoining rooms", "ota_code": 4}, {"amenity": "", "description": "Indoor parking", "ota_code": 53}, {"amenity": "", "description": "Indoor pool", "ota_code": 54}, {"amenity": "BABY_SITTING", "description": "Baby sitting", "ota_code": 8}, {"amenity": "RESTAURANT", "description": "Restaurant", "ota_code": 76}, {"amenity": "OUTDOOR_POOL", "description": "Outdoor pool", "ota_code": 66}], "location": {"latitude": 31.2003, "longitude": 121.30631}, "address": {"city": "Shanghai", "postal_code": "201107", "line1": "No 666 Taihong Road", "country": "CN"}, "property_code": "SBSHASHO", "awards": [], "property_name": "Sofitel Shanghai Hongqiao", "rooms": [{"total_amount": {"currency": "USD", "amount": "690.43"}, "rate_plan_code": "SEN", "room_type_info": {"bed_type": "Single", "room_type": "Room with bath - Moderate", "number_of_beds": "2"}, "room_type_code": "B2S", "rates": [{"price": 87.74, "start_date": "2018-06-15", "end_date": "2018-06-19", "currency_code": "USD"}, {"price": 113.16, "start_date": "2018-06-12", "end_date": "2018-06-15", "currency_code": "USD"}], "descriptions": ["Senior Rate - Age 60 and over", "SUPERIOR ROOM, 2 Single Size Beds"], "rate_type_code": "SEN", "booking_code": "B2SSEN"}]}, {"total_price": {"currency": "USD", "amount": "726.68"}, "contacts": [{"type": "PHONE", "detail": "86-21-22138888"}, {"type": "FAX", "detail": "86-21-52701999"}, {"type": "URL", "detail": "www.crowneplaza.com/shnoahsquare"}], "min_daily_rate": {"currency": "USD", "amount": "15.71"}, "_links": {"more_rooms_at_this_hotel": {"href": "https://api.sandbox.amadeus.com/v1.2/hotels/CPSHADC3?apikey=goTs2OMgouGoi5nBhsBcpK11RWe7dDdE&check_in=2018-06-12&check_out=2018-06-19&referrer=more_rooms_at_this_hotel"}}, "images": [], "amenities": [{"amenity": "RESTAURANT", "description": "Restaurant", "ota_code": 76}, {"amenity": "ACCESSIBLE_FACILITIES", "description": "Accessible facilities", "ota_code": 47}, {"amenity": "BABY_SITTING", "description": "Baby sitting", "ota_code": 8}, {"amenity": "CURRENCY_EXCHANGE", "description": "Currency exchange", "ota_code": 26}, {"amenity": "EXECUTIVE_FLOOR", "description": "Executive floor", "ota_code": 34}, {"amenity": "HOTSPOTS", "description": "Hotspots", "ota_code": 221}, {"amenity": "FREE_HIGH_SPEED_INTERNET", "description": "Free high speed internet connection", "ota_code": 222}, {"amenity": "INTERNET_PUBLIC_AREAS", "description": "Internet access in public areas", "ota_code": 178}, {"amenity": "LAUNDRY_SERVICE", "description": "Laundry/Valet service", "ota_code": 58}, {"amenity": "PARKING", "description": "Parking", "ota_code": 68}, {"amenity": "POOL", "description": "Pool", "ota_code": 71}, {"amenity": "ROOM_SERVICE", "description": "Room service", "ota_code": 77}, {"amenity": "SAFE_DEPOSIT_BOX", "description": "Safe deposit box", "ota_code": 78}], "location": {"latitude": 31.23278, "longitude": 121.37625}, "address": {"city": "Shanghai", "postal_code": "200333", "line1": "No.1699 Jinshajiang Road", "country": "CN"}, "property_code": "CPSHADC3", "awards": [], "marketing_text": "Meeting the needs of on-the-go travelers, Crowne Plaza Shanghai Noah Square puts you in the center of activity in Shanghai?s up and coming Jinshajiang Rd of the Putuo District.", "property_name": "Crowne Plaza Noah Square", "rooms": [{"total_amount": {"currency": "USD", "amount": "726.68"}, "rate_plan_code": "R0L", "room_type_info": {"room_type": "Unspecified"}, "room_type_code": "*RH", "rates": [{"price": 62.83, "start_date": "2018-06-15", "end_date": "2018-06-19", "currency_code": "USD"}, {"price": 123.97, "start_date": "2018-06-12", "end_date": "2018-06-15", "currency_code": "USD"}], "descriptions": ["ADVANCE PURCHASE NO REFUNDS", "SUPERIOR ROOM YOUR 38 SQ METER ROOM HAS 1 KING", "OR 2 SINGLE BEDS SUBJECT TO AVAILABILITY AND"], "rate_type_code": "R0L", "booking_code": "SUPR0LN"}]}, {"total_price": {"currency": "USD", "amount": "758.56"}, "contacts": [{"type": "PHONE", "detail": "86-21-62688868"}, {"type": "FAX", "detail": "86-21-62688007"}], "min_daily_rate": {"currency": "USD", "amount": "13.46"}, "_links": {"more_rooms_at_this_hotel": {"href": "https://api.sandbox.amadeus.com/v1.2/hotels/JJSHACYP?apikey=goTs2OMgouGoi5nBhsBcpK11RWe7dDdE&check_in=2018-06-12&check_out=2018-06-19&referrer=more_rooms_at_this_hotel"}}, "images": [], "amenities": [{"amenity": "LOUNGE_BARS", "description": "Lounges/bars", "ota_code": 165}, {"amenity": "RESTAURANT", "description": "Restaurant", "ota_code": 76}, {"amenity": "ELEVATORS", "description": "Elevators", "ota_code": 33}, {"amenity": "FREE_HIGH_SPEED_INTERNET", "description": "Free high speed internet connection", "ota_code": 222}, {"amenity": "INTERNET_PUBLIC_AREAS", "description": "Internet access in public areas", "ota_code": 178}, {"amenity": "MASSAGE_SERVICES", "description": "Massage services", "ota_code": 61}, {"amenity": "PARKING", "description": "Parking", "ota_code": 68}, {"amenity": "SAUNA", "description": "Sauna", "ota_code": 79}, {"amenity": "LOUNGE_BARS", "description": "Lounges/bars", "ota_code": 165}, {"amenity": "POOL", "description": "Pool", "ota_code": 71}, {"amenity": "SPA", "description": "Spa", "ota_code": 84}], "location": {"latitude": 31.18909, "longitude": 121.36064}, "address": {"city": "Shanghai", "postal_code": "200335", "line1": "2419 Hong Qiao Road", "country": "CN"}, "property_code": "JJSHACYP", "awards": [], "marketing_text": "This pleasant and comfortable hotel offers comprehensive meeting and recreational facilities in contemporary design.", "property_name": "Cypress", "rooms": [{"total_amount": {"currency": "USD", "amount": "758.56"}, "rate_plan_code": "RAC", "room_type_info": {"bed_type": "Twin", "room_type": "Room with bath - Standard", "number_of_beds": "1"}, "room_type_code": "C1T", "rates": [{"price": 94.23, "start_date": "2018-06-12", "end_date": "2018-06-19", "currency_code": "USD"}], "descriptions": ["RACK RATE ", "Standard Twin 2 single beds-20sqm-oriental style furniture 2 ", "single beds-20sqm-oriental style furniture "], "rate_type_code": "RAC", "booking_code": "C1TRAC"}]}, {"total_price": {"currency": "USD", "amount": "777.64"}, "contacts": [{"type": "PHONE", "detail": "86-21-33571999"}, {"type": "FAX", "detail": "86-21-33571988"}, {"type": "URL", "detail": "www.holidayinn.com/hongqiao"}], "min_daily_rate": {"currency": "USD", "amount": "39.44"}, "_links": {"more_rooms_at_this_hotel": {"href": "https://api.sandbox.amadeus.com/v1.2/hotels/HISHA8F7?apikey=goTs2OMgouGoi5nBhsBcpK11RWe7dDdE&check_in=2018-06-12&check_out=2018-06-19&referrer=more_rooms_at_this_hotel"}}, "images": [], "amenities": [{"amenity": "RESTAURANT", "description": "Restaurant", "ota_code": 76}, {"amenity": "ACCESSIBLE_FACILITIES", "description": "Accessible facilities", "ota_code": 47}, {"amenity": "BABY_SITTING", "description": "Baby sitting", "ota_code": 8}, {"amenity": "CURRENCY_EXCHANGE", "description": "Currency exchange", "ota_code": 26}, {"amenity": "EXECUTIVE_FLOOR", "description": "Executive floor", "ota_code": 34}, {"amenity": "HOTSPOTS", "description": "Hotspots", "ota_code": 221}, {"amenity": "FREE_HIGH_SPEED_INTERNET", "description": "Free high speed internet connection", "ota_code": 222}, {"amenity": "INTERNET_PUBLIC_AREAS", "description": "Internet access in public areas", "ota_code": 178}, {"amenity": "LAUNDRY_SERVICE", "description": "Laundry/Valet service", "ota_code": 58}, {"amenity": "PARKING", "description": "Parking", "ota_code": 68}, {"amenity": "POOL", "description": "Pool", "ota_code": 71}, {"amenity": "SAFE_DEPOSIT_BOX", "description": "Safe deposit box", "ota_code": 78}, {"amenity": "OUTDOOR_POOL", "description": "Outdoor pool", "ota_code": 66}, {"amenity": "BALLROOM", "description": "Ballroom", "ota_code": 191}, {"amenity": "SPA", "description": "Spa", "ota_code": 84}], "location": {"latitude": 31.16218, "longitude": 121.34255}, "address": {"city": "Shanghai", "postal_code": "201101", "line1": "No.3535 Qixin Road", "country": "CN"}, "property_code": "HISHA8F7", "awards": [], "property_name": "Holiday Inn Hongqiao", "rooms": [{"total_amount": {"currency": "USD", "amount": "777.64"}, "rate_plan_code": "R0L", "room_type_info": {"room_type": "Unspecified"}, "room_type_code": "*RH", "rates": [{"price": 78.89, "start_date": "2018-06-16", "end_date": "2018-06-18", "currency_code": "USD"}, {"price": 128.2, "start_date": "2018-06-12", "end_date": "2018-06-15", "currency_code": "USD"}, {"price": 107.07, "start_date": "2018-06-15", "end_date": "2018-06-16", "currency_code": "USD"}, {"price": 128.2, "start_date": "2018-06-18", "end_date": "2018-06-19", "currency_code": "USD"}], "descriptions": ["ADVANCE PURCHASE NO REFUNDS", "HOLIDAY INN DELUXE ROOM YOUR 38 SQ METER ROOM", "HAS 1 KING OR 2 SINGLE BEDS. SUBJECT TO"], "rate_type_code": "R0L", "booking_code": "CDHR0LN"}]}, {"total_price": {"currency": "USD", "amount": "788.91"}, "contacts": [{"type": "PHONE", "detail": "86-21-52966002"}, {"type": "FAX", "detail": "86-21-52966003"}], "min_daily_rate": {"currency": "USD", "amount": "16.10"}, "_links": {"more_rooms_at_this_hotel": {"href": "https://api.sandbox.amadeus.com/v1.2/hotels/LOSHACSH?apikey=goTs2OMgouGoi5nBhsBcpK11RWe7dDdE&check_in=2018-06-12&check_out=2018-06-19&referrer=more_rooms_at_this_hotel"}}, "images": [], "amenities": [{"amenity": "COFFEE_SHOP", "description": "Coffee shop", "ota_code": 20}, {"amenity": "RESTAURANT", "description": "Restaurant", "ota_code": 76}, {"amenity": "ACCESSIBLE_FACILITIES", "description": "Accessible facilities", "ota_code": 47}, {"amenity": "CHILDREN_WELCOME", "description": "Children welcome", "ota_code": 218}, {"amenity": "ELEVATORS", "description": "Elevators", "ota_code": 33}, {"amenity": "CURRENCY_EXCHANGE", "description": "Currency exchange", "ota_code": 26}, {"amenity": "EXECUTIVE_FLOOR", "description": "Executive floor", "ota_code": 34}, {"amenity": "HOTSPOTS", "description": "Hotspots", "ota_code": 221}, {"amenity": "INTERNET_PUBLIC_AREAS", "description": "Internet access in public areas", "ota_code": 178}, {"amenity": "LAUNDRY_SERVICE", "description": "Laundry/Valet service", "ota_code": 58}, {"amenity": "NON_PORNOGRAPHIC_TV", "description": "Hotel does not provide pornographic films/TV", "ota_code": 220}, {"amenity": "PARKING", "description": "Parking", "ota_code": 68}, {"amenity": "VALET_PARKING", "description": "Valet parking ", "ota_code": 97}, {"amenity": "LOUNGE_BARS", "description": "Lounges/bars", "ota_code": 165}, {"amenity": "LOUNGE_BARS", "description": "Lounges/bars", "ota_code": 165}, {"amenity": "ROOM_SERVICE", "description": "Room service", "ota_code": 77}, {"amenity": "SAFE_DEPOSIT_BOX", "description": "Safe deposit box", "ota_code": 78}, {"amenity": "OUTDOOR_POOL", "description": "Outdoor pool", "ota_code": 66}, {"amenity": "BALLROOM", "description": "Ballroom", "ota_code": 191}, {"amenity": "SPA", "description": "Spa", "ota_code": 84}], "location": {"latitude": 31.20583, "longitude": 121.31614}, "address": {"city": "Shanghai", "postal_code": "201106", "line1": "No 333 Shenhong Road", "country": "CN"}, "property_code": "LOSHACSH", "awards": [], "property_name": "Cordis Shanghai Hongqiao", "rooms": [{"total_amount": {"currency": "USD", "amount": "788.91"}, "rate_plan_code": "PR2", "room_type_info": {"bed_type": "Twin", "room_type": "Room with bath - Standard", "number_of_beds": "2"}, "room_type_code": "C2T", "rates": [{"price": 112.7, "start_date": "2018-06-12", "end_date": "2018-06-19", "currency_code": "USD"}], "descriptions": ["ADVANCE PURCHASE RATE ", "Superior Twin-TWIN BED-41SQM-CITY VIEW -WIFI Superior Twin-TWIN ", "BED-41SQM-CITY VIEW -WIFI "], "rate_type_code": "PR2", "booking_code": "C2TPR2"}]}, {"total_price": {"currency": "USD", "amount": "828.36"}, "contacts": [{"type": "PHONE", "detail": "86-21-67001888"}, {"type": "FAX", "detail": "86-21-67001999"}, {"type": "URL", "detail": "www.intercontinental.com/icshanghainecc"}], "min_daily_rate": {"currency": "USD", "amount": "35.22"}, "_links": {"more_rooms_at_this_hotel": {"href": "https://api.sandbox.amadeus.com/v1.2/hotels/ICSHA03D?apikey=goTs2OMgouGoi5nBhsBcpK11RWe7dDdE&check_in=2018-06-12&check_out=2018-06-19&referrer=more_rooms_at_this_hotel"}}, "images": [], "amenities": [{"amenity": "COFFEE_SHOP", "description": "Coffee shop", "ota_code": 20}, {"amenity": "RESTAURANT", "description": "Restaurant", "ota_code": 76}, {"amenity": "ACCESSIBLE_FACILITIES", "description": "Accessible facilities", "ota_code": 47}, {"amenity": "BABY_SITTING", "description": "Baby sitting", "ota_code": 8}, {"amenity": "CURRENCY_EXCHANGE", "description": "Currency exchange", "ota_code": 26}, {"amenity": "EXECUTIVE_FLOOR", "description": "Executive floor", "ota_code": 34}, {"amenity": "HOTSPOTS", "description": "Hotspots", "ota_code": 221}, {"amenity": "FREE_HIGH_SPEED_INTERNET", "description": "Free high speed internet connection", "ota_code": 222}, {"amenity": "INTERNET_PUBLIC_AREAS", "description": "Internet access in public areas", "ota_code": 178}, {"amenity": "JACUZZI", "description": "Jacuzzi", "ota_code": 55}, {"amenity": "LAUNDRY_SERVICE", "description": "Laundry/Valet service", "ota_code": 58}, {"amenity": "MASSAGE_SERVICES", "description": "Massage services", "ota_code": 61}, {"amenity": "PARKING", "description": "Parking", "ota_code": 68}, {"amenity": "SAUNA", "description": "Sauna", "ota_code": 79}, {"amenity": "POOL", "description": "Pool", "ota_code": 71}, {"amenity": "ROOM_SERVICE", "description": "Room service", "ota_code": 77}, {"amenity": "SAFE_DEPOSIT_BOX", "description": "Safe deposit box", "ota_code": 78}], "location": {"latitude": 31.18517, "longitude": 121.29933}, "address": {"city": "Shanghai", "postal_code": "201702", "line1": "Gate 3 No 1700 Zhuguang Road", "country": "CN"}, "property_code": "ICSHA03D", "awards": [], "marketing_text": "InterContinental Shanghai Hongqiao NECC is the most prestigious luxury hotel in the vibrant new Hongqiao CBD.", "property_name": "Intercontinental Necc", "rooms": [{"total_amount": {"currency": "USD", "amount": "828.36"}, "rate_plan_code": "R0L", "room_type_info": {"room_type": "Unspecified"}, "room_type_code": "*RH", "rates": [{"price": 105.66, "start_date": "2018-06-15", "end_date": "2018-06-18", "currency_code": "USD"}, {"price": 119.75, "start_date": "2018-06-12", "end_date": "2018-06-15", "currency_code": "USD"}, {"price": 152.15, "start_date": "2018-06-18", "end_date": "2018-06-19", "currency_code": "USD"}], "descriptions": ["ADVANCE PURCHASE NO REFUNDS ", "INTERCONTINENTAL  SUPERIOR ROOM YOUR 40SQM ROOM", "HAS 1 KING OR 2 SINGLE BEDS. SUBJECT TO "], "rate_type_code": "R0L", "booking_code": "CSPR0LN"}]}, {"total_price": {"currency": "USD", "amount": "1022.08"}, "contacts": [{"type": "PHONE", "detail": "+86 21 5329 9999"}, {"type": "FAX", "detail": "+86 21 5221 1199"}, {"type": "EMAIL", "detail": "lemeridien.shanghaiminhang@lemeridien.com"}], "min_daily_rate": {"currency": "USD", "amount": "35.48"}, "_links": {"more_rooms_at_this_hotel": {"href": "https://api.sandbox.amadeus.com/v1.2/hotels/MDSHA217?apikey=goTs2OMgouGoi5nBhsBcpK11RWe7dDdE&check_in=2018-06-12&check_out=2018-06-19&referrer=more_rooms_at_this_hotel"}}, "images": [], "amenities": [{"amenity": "PARKING", "description": "Parking", "ota_code": 68}, {"amenity": "CURRENCY_EXCHANGE", "description": "Currency exchange", "ota_code": 26}, {"amenity": "LOUNGE_BARS", "description": "Lounges/bars", "ota_code": 165}, {"amenity": "", "description": "Baggage hold", "ota_code": 201}, {"amenity": "", "description": "Wireless internet connection in public areas", "ota_code": 179}, {"amenity": "", "description": "Wedding services", "ota_code": 104}, {"amenity": "", "description": "ATM/Cash machine", "ota_code": 7}, {"amenity": "", "description": "Translation services", "ota_code": 92}, {"amenity": "POOL", "description": "Pool", "ota_code": 71}, {"amenity": "SPA", "description": "Spa", "ota_code": 84}, {"amenity": "RESTAURANT", "description": "Restaurant", "ota_code": 76}, {"amenity": "", "description": "Free parking", "ota_code": 42}, {"amenity": "", "description": "Indoor pool", "ota_code": 54}, {"amenity": "NON_SMOKING_ROOM", "description": "Non-smoking rooms (generic)", "ota_code": 198}, {"amenity": "BALLROOM", "description": "Ballroom", "ota_code": 191}], "location": {"latitude": 31.15716, "longitude": 121.35602}, "address": {"city": "Shanghai", "postal_code": "201101", "line1": "No 3199 Caobao Road", "country": "CN"}, "property_code": "MDSHA217", "awards": [{"rating": "Most Anticipated Hotel", "provider": "Shanghai Daily"}], "property_name": "Le Meridien Shanghai", "rooms": [{"total_amount": {"currency": "USD", "amount": "1022.08"}, "rate_plan_code": "DO0", "room_type_info": {"bed_type": "King", "number_of_beds": "1"}, "room_type_code": "O1K", "rates": [{"price": 106.44, "start_date": "2018-06-16", "end_date": "2018-06-19", "currency_code": "USD"}, {"price": 145.57, "start_date": "2018-06-13", "end_date": "2018-06-15", "currency_code": "USD"}, {"price": 117.4, "start_date": "2018-06-15", "end_date": "2018-06-16", "currency_code": "USD"}, {"price": 148.7, "start_date": "2018-06-12", "end_date": "2018-06-13", "currency_code": "USD"}], "descriptions": ["1 KING:PREPAID RATE", "DELUXE ACCESSIBLE NON-SMOKING:HIGH-SPEED", "INTERNET:42 INCH LCD TV:SEPARATE"], "rate_type_code": "DO0", "booking_code": "O1KDO0"}]}, {"total_price": {"currency": "USD", "amount": "1047.66"}, "contacts": [{"type": "PHONE", "detail": "86-21-62085888"}, {"type": "FAX", "detail": "86-21-62951390"}], "min_daily_rate": {"currency": "USD", "amount": "56.35"}, "_links": {"more_rooms_at_this_hotel": {"href": "https://api.sandbox.amadeus.com/v1.2/hotels/MUSHAMHO?apikey=goTs2OMgouGoi5nBhsBcpK11RWe7dDdE&check_in=2018-06-12&check_out=2018-06-19&referrer=more_rooms_at_this_hotel"}}, "images": [], "amenities": [{"amenity": "COFFEE_SHOP", "description": "Coffee shop", "ota_code": 20}, {"amenity": "RESTAURANT", "description": "Restaurant", "ota_code": 76}, {"amenity": "ACCESSIBLE_FACILITIES", "description": "Accessible facilities", "ota_code": 47}, {"amenity": "BABY_SITTING", "description": "Baby sitting", "ota_code": 8}, {"amenity": "CHILDREN_WELCOME", "description": "Children welcome", "ota_code": 218}, {"amenity": "ELEVATORS", "description": "Elevators", "ota_code": 33}, {"amenity": "CURRENCY_EXCHANGE", "description": "Currency exchange", "ota_code": 26}, {"amenity": "EXECUTIVE_FLOOR", "description": "Executive floor", "ota_code": 34}, {"amenity": "GIFT_SHOP", "description": "Gift/News stand", "ota_code": 45}, {"amenity": "INTERNET_PUBLIC_AREAS", "description": "Internet access in public areas", "ota_code": 178}, {"amenity": "LAUNDRY_SERVICE", "description": "Laundry/Valet service", "ota_code": 58}, {"amenity": "PARKING", "description": "Parking", "ota_code": 68}, {"amenity": "SAUNA", "description": "Sauna", "ota_code": 79}, {"amenity": "SPA", "description": "Spa", "ota_code": 84}, {"amenity": "LOUNGE_BARS", "description": "Lounges/bars", "ota_code": 165}, {"amenity": "", "description": "Hairdresser/barber", "ota_code": 46}, {"amenity": "POOL", "description": "Pool", "ota_code": 71}, {"amenity": "LOUNGE_BARS", "description": "Lounges/bars", "ota_code": 165}, {"amenity": "ROOM_SERVICE", "description": "Room service", "ota_code": 77}, {"amenity": "BALLROOM", "description": "Ballroom", "ota_code": 191}, {"amenity": "OUTDOOR_POOL", "description": "Outdoor pool", "ota_code": 66}], "location": {"latitude": 31.19874, "longitude": 121.39059}, "address": {"city": "Shanghai", "postal_code": "201103", "line1": "2588 Yan An West Road", "country": "CN"}, "property_code": "MUSHAMHO", "awards": [{"rating": "5", "provider": "Local Star Rating"}, {"rating": "Deluxe", "provider": "OHG"}], "property_name": "Grand Millennium Hongqiao", "rooms": [{"total_amount": {"currency": "USD", "amount": "1047.66"}, "rate_plan_code": "HO1", "room_type_info": {"bed_type": "Single", "room_type": "Room with bath - Moderate", "number_of_beds": "2"}, "room_type_code": "B2S", "rates": [{"price": 112.7, "start_date": "2018-06-15", "end_date": "2018-06-17", "currency_code": "USD"}, {"price": 159.66, "start_date": "2018-06-12", "end_date": "2018-06-14", "currency_code": "USD"}, {"price": 103.31, "start_date": "2018-06-17", "end_date": "2018-06-18", "currency_code": "USD"}, {"price": 112.7, "start_date": "2018-06-18", "end_date": "2018-06-19", "currency_code": "USD"}, {"price": 150.27, "start_date": "2018-06-14", "end_date": "2018-06-15", "currency_code": "USD"}], "descriptions": ["HOT DEAL 40 PCT OFF BAR - RO - INC HSIA - EX", "TAX - 10 PCT COMMISSIONABLE", "Club 2 Singles - Air Con - 40Sqm - Safe-Flat"], "rate_type_code": "HO1", "booking_code": "B2SHO1"}]}, {"total_price": {"currency": "USD", "amount": "1256.61"}, "contacts": [{"type": "PHONE", "detail": "86-21-60106000"}, {"type": "FAX", "detail": "86-21-60106001"}], "min_daily_rate": {"currency": "USD", "amount": "29.94"}, "_links": {"more_rooms_at_this_hotel": {"href": "https://api.sandbox.amadeus.com/v1.2/hotels/MCSHAQIM?apikey=goTs2OMgouGoi5nBhsBcpK11RWe7dDdE&check_in=2018-06-12&check_out=2018-06-19&referrer=more_rooms_at_this_hotel"}}, "images": [], "amenities": [{"amenity": "COFFEE_SHOP", "description": "Coffee shop", "ota_code": 20}, {"amenity": "ICE_MACHINE", "description": "Ice machine", "ota_code": 52}, {"amenity": "RESTAURANT", "description": "Restaurant", "ota_code": 76}, {"amenity": "ACCESSIBLE_FACILITIES", "description": "Accessible facilities", "ota_code": 47}, {"amenity": "BEAUTY_SALON", "description": "Beauty shop/salon", "ota_code": 107}, {"amenity": "ELEVATORS", "description": "Elevators", "ota_code": 33}, {"amenity": "CURRENCY_EXCHANGE", "description": "Currency exchange", "ota_code": 26}, {"amenity": "EXECUTIVE_FLOOR", "description": "Executive floor", "ota_code": 34}, {"amenity": "INTERNET_PUBLIC_AREAS", "description": "Internet access in public areas", "ota_code": 178}, {"amenity": "JACUZZI", "description": "Jacuzzi", "ota_code": 55}, {"amenity": "LAUNDRY_SERVICE", "description": "Laundry/Valet service", "ota_code": 58}, {"amenity": "SAUNA", "description": "Sauna", "ota_code": 79}, {"amenity": "", "description": "Hairdresser/barber", "ota_code": 46}, {"amenity": "POOL", "description": "Pool", "ota_code": 71}, {"amenity": "LOUNGE_BARS", "description": "Lounges/bars", "ota_code": 165}, {"amenity": "ROOM_SERVICE", "description": "Room service", "ota_code": 77}, {"amenity": "SAFE_DEPOSIT_BOX", "description": "Safe deposit box", "ota_code": 78}], "location": {"latitude": 31.19347, "longitude": 121.37192}, "address": {"city": "Shanghai", "postal_code": "200336", "line1": "2270 Hong Qiao Road Changning", "country": "CN"}, "property_code": "MCSHAQIM", "awards": [], "property_name": "Shanghai Marriott Hongqiao", "rooms": [{"total_amount": {"currency": "USD", "amount": "1256.61"}, "rate_plan_code": "S9R", "room_type_info": {}, "room_type_code": "XMI", "rates": [{"price": 119.75, "start_date": "2018-06-15", "end_date": "2018-06-19", "currency_code": "USD"}, {"price": 199.58, "start_date": "2018-06-12", "end_date": "2018-06-15", "currency_code": "USD"}], "descriptions": ["Marriott Senior Discount, see Rate Rules", "1 King or 2 Twin/Single Bed(s), Mini fridge, 32", "sqm/344sqft, Living/sitting area, Wireless inte"], "rate_type_code": "S9R", "booking_code": "XMIA00"}]}, {"total_price": {"currency": "USD", "amount": "1352.11"}, "contacts": [{"type": "PHONE", "detail": "86 871 67089777"}, {"type": "FAX", "detail": "86 871 67089686"}], "min_daily_rate": {"currency": "USD", "amount": "27.59"}, "_links": {"more_rooms_at_this_hotel": {"href": "https://api.sandbox.amadeus.com/v1.2/hotels/OKKMGBYH?apikey=goTs2OMgouGoi5nBhsBcpK11RWe7dDdE&check_in=2018-06-12&check_out=2018-06-19&referrer=more_rooms_at_this_hotel"}}, "images": [], "amenities": [{"amenity": "COFFEE_SHOP", "description": "Coffee shop", "ota_code": 20}, {"amenity": "RESTAURANT", "description": "Restaurant", "ota_code": 76}, {"amenity": "ELEVATORS", "description": "Elevators", "ota_code": 33}, {"amenity": "GIFT_SHOP", "description": "Gift/News stand", "ota_code": 45}, {"amenity": "FREE_HIGH_SPEED_INTERNET", "description": "Free high speed internet connection", "ota_code": 222}, {"amenity": "MASSAGE_SERVICES", "description": "Massage services", "ota_code": 61}, {"amenity": "PARKING", "description": "Parking", "ota_code": 68}, {"amenity": "LOUNGE_BARS", "description": "Lounges/bars", "ota_code": 165}, {"amenity": "LOUNGE_BARS", "description": "Lounges/bars", "ota_code": 165}, {"amenity": "ROOM_SERVICE", "description": "Room service", "ota_code": 77}, {"amenity": "SAFE_DEPOSIT_BOX", "description": "Safe deposit box", "ota_code": 78}], "location": {"latitude": 31.19268, "longitude": 121.33219}, "address": {"city": "Kunming", "postal_code": "650200", "line1": "North Road Of Airport", "country": "CN"}, "property_code": "OKKMGBYH", "awards": [], "property_name": "Best Yue Hang Airport  Hotel", "rooms": [{"total_amount": {"currency": "USD", "amount": "1352.11"}, "rate_plan_code": "PRO", "room_type_info": {"bed_type": "Twin", "room_type": "Room with bath - Superior", "number_of_beds": "2"}, "room_type_code": "A2T", "rates": [{"price": 193.16, "start_date": "2018-06-12", "end_date": "2018-06-19", "currency_code": "USD"}], "descriptions": ["Discounted Prepaid Rate BB", "Superior Twin Room-Free WIFI-30SQM", "Breakfast include-IDD/DDD-Mini bar"], "rate_type_code": "PRO", "booking_code": "A2TNRF"}]}, {"total_price": {"currency": "USD", "amount": "1961.32"}, "contacts": [{"type": "PHONE", "detail": "86-21-22279999"}, {"type": "FAX", "detail": "86-21-22279888"}, {"type": "EMAIL", "detail": "renee.huang@theanandi.com"}, {"type": "URL", "detail": "www.LHW.com/anandishanghai"}], "min_daily_rate": {"currency": "USD", "amount": "40.03"}, "_links": {"more_rooms_at_this_hotel": {"href": "https://api.sandbox.amadeus.com/v1.2/hotels/LWSHA813?apikey=goTs2OMgouGoi5nBhsBcpK11RWe7dDdE&check_in=2018-06-12&check_out=2018-06-19&referrer=more_rooms_at_this_hotel"}}, "images": [], "amenities": [{"amenity": "COFFEE_SHOP", "description": "Coffee shop", "ota_code": 20}, {"amenity": "RESTAURANT", "description": "Restaurant", "ota_code": 76}, {"amenity": "ACCESSIBLE_FACILITIES", "description": "Accessible facilities", "ota_code": 47}, {"amenity": "CAR_RENTAL", "description": "Car rental desk", "ota_code": 15}, {"amenity": "CHILDREN_WELCOME", "description": "Children welcome", "ota_code": 218}, {"amenity": "ELEVATORS", "description": "Elevators", "ota_code": 33}, {"amenity": "CURRENCY_EXCHANGE", "description": "Currency exchange", "ota_code": 26}, {"amenity": "EXECUTIVE_FLOOR", "description": "Executive floor", "ota_code": 34}, {"amenity": "HOTSPOTS", "description": "Hotspots", "ota_code": 221}, {"amenity": "INTERNET_PUBLIC_AREAS", "description": "Internet access in public areas", "ota_code": 178}, {"amenity": "JACUZZI", "description": "Jacuzzi", "ota_code": 55}, {"amenity": "LAUNDRY_SERVICE", "description": "Laundry/Valet service", "ota_code": 58}, {"amenity": "MASSAGE_SERVICES", "description": "Massage services", "ota_code": 61}, {"amenity": "NON_PORNOGRAPHIC_TV", "description": "Hotel does not provide pornographic films/TV", "ota_code": 220}, {"amenity": "PARKING", "description": "Parking", "ota_code": 68}, {"amenity": "SPA", "description": "Spa", "ota_code": 84}, {"amenity": "VALET_PARKING", "description": "Valet parking ", "ota_code": 97}, {"amenity": "ROOM_SERVICE", "description": "Room service", "ota_code": 77}, {"amenity": "SAFE_DEPOSIT_BOX", "description": "Safe deposit box", "ota_code": 78}], "location": {"latitude": 31.23097, "longitude": 121.35742}, "address": {"city": "Shanghai", "postal_code": "200335", "line1": "No7  Lin Hong Road", "country": "CN"}, "property_code": "LWSHA813", "awards": [], "property_name": "The Anandi Hotel And Spa", "rooms": [{"total_amount": {"currency": "USD", "amount": "1961.32"}, "rate_plan_code": "PRO", "room_type_info": {"bed_type": "Twin", "room_type": "Room with bath - Minimum", "number_of_beds": "2"}, "room_type_code": "D2T", "rates": [{"price": 280.19, "start_date": "2018-06-12", "end_date": "2018-06-19", "currency_code": "USD"}], "descriptions": ["Opening Promotion", "Deluxe twin bed,45sqm,green technology.", "Reveal the vibrant city's essence."], "rate_type_code": "PRO", "booking_code": "S11ZZZZ"}]}]